ONEWEB-0216             
1 48801U 21045AL  25301.44340760 -.00000007  00000+0 -51730-4 0  9990
2 48801  87.8959 305.4445 0001730  97.4558 262.6769 13.15550076213831
ONEWEB-0239             
1 48802U 21045AM  25301.44818330  .00000197  00000+0  48950-3 0  9991
2 48802  87.8962 305.4585 0002547 100.9039 259.2379 13.15549407213871
ONEWEB-0249             
1 48967U 21060A   25301.48936146  .00000009  00000+0 -11096-4 0  9995
2 48967  87.8987 274.9313 0001983  88.0763 272.0595 13.16594828209126
ONEWEB-0250             
1 48968U 21060B   25301.46920397  .00000076  00000+0  14334-3 0  9995
2 48968  87.8986 273.4496 0002956  79.7189 280.4280 13.25816138209510
ONEWEB-0252             
1 48970U 21060D   25301.44502192  .00000106  00000+0  24320-3 0  9995
2 48970  87.8987 274.9334 0001697  91.2260 268.9065 13.16592357209168
ONEWEB-0253             
1 48971U 21060E   25301.43393470 -.00000147  00000+0 -41732-3 0  9995
2 48971  87.8986 274.9397 0001953  91.4997 268.6358 13.16593097209097
ONEWEB-0254             
1 48972U 21060F   25301.44344692  .00000174  00000+0  42090-3 0  9995
2 48972  87.8993 274.9267 0002182  92.7733 267.3648 13.16592710209098
ONEWEB-0255             
1 48973U 21060G   25301.48144611  .00000048  00000+0  91289-4 0  9994
2 48973  87.8985 274.9398 0002082  90.5434 269.5936 13.16595503209174
ONEWEB-0256             
1 48974U 21060H   25301.43157048 -.00000026  00000+0 -10057-3 0  9999
2 48974  87.8978 274.9603 0001769  84.1586 275.9747 13.16595273209135
ONEWEB-0257             
1 48975U 21060J   25301.46403427  .00000148  00000+0  35326-3 0  9997
2 48975  87.8989 274.9275 0001939  91.4590 268.6763 13.16594884209097
ONEWEB-0258             
1 48976U 21060K   25301.46561844  .00000132  00000+0  31083-3 0  9995
2 48976  87.8979 274.9462 0001971  83.9764 276.1591 13.16595547209102
ONEWEB-0259             
1 48977U 21060L   25301.45928889  .00000175  00000+0  42387-3 0  9997
2 48977  87.8992 274.9373 0002039  89.1032 271.0333 13.16595133209133
ONEWEB-0260             
1 48978U 21060M   25301.45058780  .00000121  00000+0  28387-3 0  9997
2 48978  87.8978 274.9581 0001474  87.6976 272.4324 13.16595188209114
ONEWEB-0261             
1 48979U 21060N   25301.49649176 -.00000006  00000+0 -49132-4 0  9993
2 48979  87.8979 274.9505 0001987  98.1254 262.0103 13.16592420209179
ONEWEB-0262             
1 48980U 21060P   25301.47669834  .00000033  00000+0  51716-4 0  9995
2 48980  87.8990 274.9234 0002253  87.3149 272.8239 13.16595394209131
ONEWEB-0263             
1 48981U 21060Q   25301.43237358  .00000026  00000+0  34444-4 0  9995
2 48981  87.8979 274.9501 0002093  96.2264 263.9106 13.16594747209095
