[{"OBJECT_NAME":"ONEWEB-0216","OBJECT_ID":"2021-045AL","EPOCH":"2025-10-28T10:38:30.416640","MEAN_MOTION":13.15550076,"ECCENTRICITY":0.00017304,"INCLINATION":87.8959,"RA_OF_ASC_NODE":305.4445,"ARG_OF_PERICENTER":97.4558,"MEAN_ANOMALY":262.6769,"EPHEMERIS_TYPE":0,"CLASSIFICATION_TYPE":"U","NORAD_CAT_ID":48801,"ELEMENT_SET_NO":999,"REV_AT_EPOCH":21383,"BSTAR":-5.1729915e-5,"MEAN_MOTION_DOT":-7.0e-8,"MEAN_MOTION_DDOT":0},{"OBJECT_NAME":"ONEWEB-0239","OBJECT_ID":"2021-045AM","EPOCH":"2025-10-28T10:45:23.037120","MEAN_MOTION":13.15549407,"ECCENTRICITY":0.00025475,"INCLINATION":87.8962,"RA_OF_ASC_NODE":305.4585,"ARG_OF_PERICENTER":100.9039,"MEAN_ANOMALY":259.2379,"EPHEMERIS_TYPE":0,"CLASSIFICATION_TYPE":"U","NORAD_CAT_ID":48802,"ELEMENT_SET_NO":999,"REV_AT_EPOCH":21387,"BSTAR":0.00048950101,"MEAN_MOTION_DOT":1.97e-6,"MEAN_MOTION_DDOT":0},{"OBJECT_NAME":"ONEWEB-0249","OBJECT_ID":"2021-060A","EPOCH":"2025-10-28T11:44:40.830144","MEAN_MOTION":13.16594828,"ECCENTRICITY":0.00019835,"INCLINATION":87.8987,"RA_OF_ASC_NODE":274.9313,"ARG_OF_PERICENTER":88.0763,"MEAN_ANOMALY":272.0595,"EPHEMERIS_TYPE":0,"CLASSIFICATION_TYPE":"U","NORAD_CAT_ID":48967,"ELEMENT_SET_NO":999,"REV_AT_EPOCH":20912,"BSTAR":-1.1096068e-5,"MEAN_MOTION_DOT":9.0e-8,"MEAN_MOTION_DDOT":0},{"OBJECT_NAME":"ONEWEB-0250","OBJECT_ID":"2021-060B","EPOCH":"2025-10-28T11:15:39.223008","MEAN_MOTION":13.25816138,"ECCENTRICITY":0.00029569,"INCLINATION":87.8986,"RA_OF_ASC_NODE":273.4496,"ARG_OF_PERICENTER":79.7189,"MEAN_ANOMALY":280.428,"EPHEMERIS_TYPE":0,"CLASSIFICATION_TYPE":"U","NORAD_CAT_ID":48968,"ELEMENT_SET_NO":999,"REV_AT_EPOCH":20951,"BSTAR":0.00014334161,"MEAN_MOTION_DOT":7.6e-7,"MEAN_MOTION_DDOT":0},{"OBJECT_NAME":"ONEWEB-0252","OBJECT_ID":"2021-060D","EPOCH":"2025-10-28T10:40:49.893888","MEAN_MOTION":13.16592357,"ECCENTRICITY":0.00016978,"INCLINATION":87.8987,"RA_OF_ASC_NODE":274.9334,"ARG_OF_PERICENTER":91.226,"MEAN_ANOMALY":268.9065,"EPHEMERIS_TYPE":0,"CLASSIFICATION_TYPE":"U","NORAD_CAT_ID":48970,"ELEMENT_SET_NO":999,"REV_AT_EPOCH":20916,"BSTAR":0.00024319706,"MEAN_MOTION_DOT":1.06e-6,"MEAN_MOTION_DDOT":0},{"OBJECT_NAME":"ONEWEB-0253","OBJECT_ID":"2021-060E","EPOCH":"2025-10-28T10:24:51.958080","MEAN_MOTION":13.16593097,"ECCENTRICITY":0.00019537,"INCLINATION":87.8986,"RA_OF_ASC_NODE":274.9397,"ARG_OF_PERICENTER":91.4997,"MEAN_ANOMALY":268.6358,"EPHEMERIS_TYPE":0,"CLASSIFICATION_TYPE":"U","NORAD_CAT_ID":48971,"ELEMENT_SET_NO":999,"REV_AT_EPOCH":20909,"BSTAR":-0.00041731958,"MEAN_MOTION_DOT":-1.47e-6,"MEAN_MOTION_DDOT":0},{"OBJECT_NAME":"ONEWEB-0254","OBJECT_ID":"2021-060F","EPOCH":"2025-10-28T10:38:33.813888","MEAN_MOTION":13.1659271,"ECCENTRICITY":0.00021826,"INCLINATION":87.8993,"RA_OF_ASC_NODE":274.9267,"ARG_OF_PERICENTER":92.7733,"MEAN_ANOMALY":267.3648,"EPHEMERIS_TYPE":0,"CLASSIFICATION_TYPE":"U","NORAD_CAT_ID":48972,"ELEMENT_SET_NO":999,"REV_AT_EPOCH":20909,"BSTAR":0.00042089857,"MEAN_MOTION_DOT":1.74e-6,"MEAN_MOTION_DDOT":0},{"OBJECT_NAME":"ONEWEB-0255","OBJECT_ID":"2021-060G","EPOCH":"2025-10-28T11:33:16.943904","MEAN_MOTION":13.16595503,"ECCENTRICITY":0.00020822,"INCLINATION":87.8985,"RA_OF_ASC_NODE":274.9398,"ARG_OF_PERICENTER":90.5434,"MEAN_ANOMALY":269.5936,"EPHEMERIS_TYPE":0,"CLASSIFICATION_TYPE":"U","NORAD_CAT_ID":48973,"ELEMENT_SET_NO":999,"REV_AT_EPOCH":20917,"BSTAR":9.1289258e-5,"MEAN_MOTION_DOT":4.8e-7,"MEAN_MOTION_DDOT":0},{"OBJECT_NAME":"ONEWEB-0256","OBJECT_ID":"2021-060H","EPOCH":"2025-10-28T10:21:27.689472","MEAN_MOTION":13.16595273,"ECCENTRICITY":0.00017697,"INCLINATION":87.8978,"RA_OF_ASC_NODE":274.9603,"ARG_OF_PERICENTER":84.1586,"MEAN_ANOMALY":275.9747,"EPHEMERIS_TYPE":0,"CLASSIFICATION_TYPE":"U","NORAD_CAT_ID":48974,"ELEMENT_SET_NO":999,"REV_AT_EPOCH":20913,"BSTAR":-0.00010057218,"MEAN_MOTION_DOT":-2.6e-7,"MEAN_MOTION_DDOT":0},{"OBJECT_NAME":"ONEWEB-0257","OBJECT_ID":"2021-060J","EPOCH":"2025-10-28T11:08:12.560928","MEAN_MOTION":13.16594884,"ECCENTRICITY":0.00019397,"INCLINATION":87.8989,"RA_OF_ASC_NODE":274.9275,"ARG_OF_PERICENTER":91.459,"MEAN_ANOMALY":268.6763,"EPHEMERIS_TYPE":0,"CLASSIFICATION_TYPE":"U","NORAD_CAT_ID":48975,"ELEMENT_SET_NO":999,"REV_AT_EPOCH":20909,"BSTAR":0.00035326066,"MEAN_MOTION_DOT":1.48e-6,"MEAN_MOTION_DDOT":0},{"OBJECT_NAME":"ONEWEB-0258","OBJECT_ID":"2021-060K","EPOCH":"2025-10-28T11:10:29.433216","MEAN_MOTION":13.16595547,"ECCENTRICITY":0.00019719,"INCLINATION":87.8979,"RA_OF_ASC_NODE":274.9462,"ARG_OF_PERICENTER":83.9764,"MEAN_ANOMALY":276.1591,"EPHEMERIS_TYPE":0,"CLASSIFICATION_TYPE":"U","NORAD_CAT_ID":48976,"ELEMENT_SET_NO":999,"REV_AT_EPOCH":20910,"BSTAR":0.00031082546,"MEAN_MOTION_DOT":1.32e-6,"MEAN_MOTION_DDOT":0},{"OBJECT_NAME":"ONEWEB-0259","OBJECT_ID":"2021-060L","EPOCH":"2025-10-28T11:01:22.560096","MEAN_MOTION":13.16595133,"ECCENTRICITY":0.00020393,"INCLINATION":87.8992,"RA_OF_ASC_NODE":274.9373,"ARG_OF_PERICENTER":89.1032,"MEAN_ANOMALY":271.0333,"EPHEMERIS_TYPE":0,"CLASSIFICATION_TYPE":"U","NORAD_CAT_ID":48977,"ELEMENT_SET_NO":999,"REV_AT_EPOCH":20913,"BSTAR":0.00042387457,"MEAN_MOTION_DOT":1.75e-6,"MEAN_MOTION_DDOT":0},{"OBJECT_NAME":"ONEWEB-0260","OBJECT_ID":"2021-060M","EPOCH":"2025-10-28T10:48:50.785920","MEAN_MOTION":13.16595188,"ECCENTRICITY":0.00014744,"INCLINATION":87.8978,"RA_OF_ASC_NODE":274.9581,"ARG_OF_PERICENTER":87.6976,"MEAN_ANOMALY":272.4324,"EPHEMERIS_TYPE":0,"CLASSIFICATION_TYPE":"U","NORAD_CAT_ID":48978,"ELEMENT_SET_NO":999,"REV_AT_EPOCH":20911,"BSTAR":0.00028386541,"MEAN_MOTION_DOT":1.21e-6,"MEAN_MOTION_DDOT":0},{"OBJECT_NAME":"ONEWEB-0261","OBJECT_ID":"2021-060N","EPOCH":"2025-10-28T11:54:56.888064","MEAN_MOTION":13.1659242,"ECCENTRICITY":0.00019879,"INCLINATION":87.8979,"RA_OF_ASC_NODE":274.9505,"ARG_OF_PERICENTER":98.1254,"MEAN_ANOMALY":262.0103,"EPHEMERIS_TYPE":0,"CLASSIFICATION_TYPE":"U","NORAD_CAT_ID":48979,"ELEMENT_SET_NO":999,"REV_AT_EPOCH":20917,"BSTAR":-4.9132104e-5,"MEAN_MOTION_DOT":-6.0e-8,"MEAN_MOTION_DDOT":0},{"OBJECT_NAME":"ONEWEB-0262","OBJECT_ID":"2021-060P","EPOCH":"2025-10-28T11:26:26.736576","MEAN_MOTION":13.16595394,"ECCENTRICITY":0.00022532,"INCLINATION":87.899,"RA_OF_ASC_NODE":274.9234,"ARG_OF_PERICENTER":87.3149,"MEAN_ANOMALY":272.8239,"EPHEMERIS_TYPE":0,"CLASSIFICATION_TYPE":"U","NORAD_CAT_ID":48980,"ELEMENT_SET_NO":999,"REV_AT_EPOCH":20913,"BSTAR":5.1715558e-5,"MEAN_MOTION_DOT":3.3e-7,"MEAN_MOTION_DDOT":0},{"OBJECT_NAME":"ONEWEB-0263","OBJECT_ID":"2021-060Q","EPOCH":"2025-10-28T10:22:37.077312","MEAN_MOTION":13.16594747,"ECCENTRICITY":0.0002093,"INCLINATION":87.8979,"RA_OF_ASC_NODE":274.9501,"ARG_OF_PERICENTER":96.2264,"MEAN_ANOMALY":263.9106,"EPHEMERIS_TYPE":0,"CLASSIFICATION_TYPE":"U","NORAD_CAT_ID":48981,"ELEMENT_SET_NO":999,"REV_AT_EPOCH":20909,"BSTAR":3.4443839e-5,"MEAN_MOTION_DOT":2.6e-7,"MEAN_MOTION_DDOT":0}]
